[{"OBJECT_NAME":"OBJECT D","OBJECT_ID":"2024-174D","EPOCH":"2026-03-10T00:15:10.483200","MEAN_MOTION":15.28039787,"ECCENTRICITY":0.00110644,"INCLINATION":97.4441,"RA_OF_ASC_NODE":80.4677,"ARG_OF_PERICENTER":212.9968,"MEAN_ANOMALY":147.0582,"EPHEMERIS_TYPE":0,"CLASSIFICATION_TYPE":"U","NORAD_CAT_ID":61241,"ELEMENT_SET_NO":999,"REV_AT_EPOCH":8076,"BSTAR":0.00036340099,"MEAN_MOTION_DOT":9.884e-5,"MEAN_MOTION_DDOT":0},{"OBJECT_NAME":"STARLINK-35781","OBJECT_ID":"2025-299J","EPOCH":"2026-03-09T07:15:07.559712","MEAN_MOTION":15.2841751,"ECCENTRICITY":6.167e-5,"INCLINATION":42.9989,"RA_OF_ASC_NODE":171.4742,"ARG_OF_PERICENTER":246.1794,"MEAN_ANOMALY":113.8993,"EPHEMERIS_TYPE":0,"CLASSIFICATION_TYPE":"U","NORAD_CAT_ID":67110,"ELEMENT_SET_NO":999,"REV_AT_EPOCH":1305,"BSTAR":0.00090285523,"MEAN_MOTION_DOT":0.00025312,"MEAN_MOTION_DDOT":0}]
